[Satellite]
VERSION=1.1
NAME=INTELSAT 901 (IS-901)
NICKNAME=INTELSAT 901 (IS-901)
TLE1=1 26824U 01024A   15052.18826633 -.00000165  00000-0  00000+0 0  9991
TLE2=2 26824   0.0185  67.3065 0003075 273.9269 219.2856  1.00272437 50215
